*******************************************************************************
JPL/HORIZONS              3806 Tremaine (1981 EW32)        2023-Sep-04 11:25:38
Rec #:    3806 (+COV) Soln.date: 2023-Aug-23_13:46:00   # obs: 3394 (1979-2023)
 
IAU76/J2000 helio. ecliptic osc. elements (au, days, deg., period=Julian yrs):
 
  EPOCH=  2457694.5 ! 2016-Nov-02.00 (TDB)         Residual RMS= .2715
   EC= .3108911161291748   QR= 1.751691645641156   TP= 2457496.2141350587
   OM= 199.4769700586167   W=  188.4576638373559   IN= 10.02300155258915
   A= 2.54196642452445     MA= 48.22154436061737   ADIST= 3.332241203407744
   PER= 4.05287            N= .243192042           ANGMOM= .026067152
   DAN= 3.31597            DDN= 1.75622            L= 27.8073779
   B= -1.4668218           MOID= .756154           TP= 2016-Apr-17.7141350587
 
Asteroid physical parameters (km, seconds, rotational period in hours):
   GM= n.a.                RAD= 2.379              ROTPER= n.a.
   H= 14.49                G= .150                 B-V= n.a.
                           ALBEDO= .113            STYP= n.a.

ASTEROID comments: 
1: soln ref.= JPL#34, OCC=0
2: source=ORB
*******************************************************************************


*******************************************************************************
Ephemeris / API_USER Mon Sep  4 11:25:38 2023 Pasadena, USA      / Horizons
*******************************************************************************
Target body name: 3806 Tremaine (1981 EW32)       {source: JPL#34}
Center body name: Solar System Barycenter (0)     {source: DE441}
Center-site name: BODY CENTER
*******************************************************************************
Start time      : A.D. 2023-Aug-12 00:00:00.0000 TDB
Stop  time      : A.D. 2023-Aug-13 00:00:00.0000 TDB
Step-size       : 2880 minutes
*******************************************************************************
Center geodetic : 0.0, 0.0, 0.0                   {E-lon(deg),Lat(deg),Alt(km)}
Center cylindric: 0.0, 0.0, 0.0                   {E-lon(deg),Dxy(km),Dz(km)}
Center radii    : (undefined)
Small perturbers: Yes                             {source: SB441-N16}
Output units    : KM-S
Calendar mode   : Mixed Julian/Gregorian
Output type     : GEOMETRIC cartesian states
Output format   : 2 (position and velocity)
Reference frame : Ecliptic of J2000.0
*******************************************************************************
Initial IAU76/J2000 heliocentric ecliptic osculating elements (au, days, deg.):
  EPOCH=  2457694.5 ! 2016-Nov-02.00 (TDB)         Residual RMS= .2715         
   EC= .3108911161291748   QR= 1.751691645641156   TP= 2457496.2141350587      
   OM= 199.4769700586167   W=  188.4576638373559   IN= 10.02300155258915       
  Equivalent ICRF heliocentric cartesian coordinates (au, au/d):
   X=-7.315375044077423E-01  Y= 2.022038798798616E+00  Z= 4.595491107783890E-01
  VX=-1.232052796782517E-02 VY=-4.646689431060157E-04 VZ=-8.537127675813821E-04
Asteroid physical parameters (km, seconds, rotational period in hours):        
   GM= n.a.                RAD= 2.379              ROTPER= n.a.                
   H= 14.49                G= .150                 B-V= n.a.                   
                           ALBEDO= .113            STYP= n.a.                  
*******************************************************************************
JDTDB
   X     Y     Z
   VX    VY    VZ
*******************************************************************************
$$SOE
2460168.500000000 = A.D. 2023-Aug-12 00:00:00.0000 TDB 
 X = 6.950177241046837E+07 Y =-3.669825136404042E+08 Z = 6.519112633678423E+07
 VX= 1.640664933659981E+01 VY= 9.041090362693497E+00 VZ=-5.492386519948620E-01
$$EOE
*******************************************************************************
 
TIME

  Barycentric Dynamical Time ("TDB" or T_eph) output was requested. This
continuous coordinate time is equivalent to the relativistic proper time
of a clock at rest in a reference frame co-moving with the solar system
barycenter but outside the system's gravity well. It is the independent
variable in the solar system relativistic equations of motion.

  TDB runs at a uniform rate of one SI second per second and is independent
of irregularities in Earth's rotation.
 
CALENDAR SYSTEM

  Mixed calendar mode was active such that calendar dates after AD 1582-Oct-15
(if any) are in the modern Gregorian system. Dates prior to 1582-Oct-5 (if any)
are in the Julian calendar system, which is automatically extended for dates
prior to its adoption on 45-Jan-1 BC.  The Julian calendar is useful for
matching historical dates. The Gregorian calendar more accurately corresponds
to the Earth's orbital motion and seasons. A "Gregorian-only" calendar mode is
available if such physical events are the primary interest.

REFERENCE FRAME AND COORDINATES

  Ecliptic at the standard reference epoch

    Reference epoch: J2000.0
    X-Y plane: adopted Earth orbital plane at the reference epoch
               Note: IAU76 obliquity of 84381.448 arcseconds wrt ICRF X-Y plane
    X-axis   : ICRF
    Z-axis   : perpendicular to the X-Y plane in the directional (+ or -) sense
               of Earth's north pole at the reference epoch.

  Symbol meaning:

    JDTDB    Julian Day Number, Barycentric Dynamical Time
      X      X-component of position vector (km)
      Y      Y-component of position vector (km)
      Z      Z-component of position vector (km)
      VX     X-component of velocity vector (km/sec)                           
      VY     Y-component of velocity vector (km/sec)                           
      VZ     Z-component of velocity vector (km/sec)                           

ABERRATIONS AND CORRECTIONS

 Geometric state vectors have NO corrections or aberrations applied.

Computations by ...

    Solar System Dynamics Group, Horizons On-Line Ephemeris System
    4800 Oak Grove Drive, Jet Propulsion Laboratory
    Pasadena, CA  91109   USA

    General site: https://ssd.jpl.nasa.gov/
    Mailing list: https://ssd.jpl.nasa.gov/email_list.html
    System news : https://ssd.jpl.nasa.gov/horizons/news.html
    User Guide  : https://ssd.jpl.nasa.gov/horizons/manual.html
    Connect     : browser        https://ssd.jpl.nasa.gov/horizons/app.html#/x
                  API            https://ssd-api.jpl.nasa.gov/doc/horizons.html
                  command-line   telnet ssd.jpl.nasa.gov 6775
                  e-mail/batch   https://ssd.jpl.nasa.gov/ftp/ssd/hrzn_batch.txt
                  scripts        https://ssd.jpl.nasa.gov/ftp/ssd/SCRIPTS
    Author      : Jon.D.Giorgini@jpl.nasa.gov
*******************************************************************************
